      2.10          N: GNSS NAV DATA                        RINEX VERSION / TYPE
fic2rin                                 04/06/2020 00:19:41 PGM / RUN BY / DATE
                                                            END OF HEADER
27 20  4  5  2  0  0.0-2.580503933132e-04-1.057287590811e-11 0.000000000000e+00
    6.900000000000e+01 6.003125000000e+01 3.924449183347e-09-1.155778506060e+00
    3.160908818245e-06 8.149021887220e-03 1.080334186554e-05 5.153666852951e+03
    7.200000000000e+03 1.452863216400e-07 2.897491181555e+00-6.332993507385e-08
    9.785612667875e-01 1.787812500000e+02 5.308681818192e-01-7.742822519637e-09
    1.964367538078e-10 1.000000000000e+00 2.100000000000e+03 0.000000000000e+00
    2.400000000000e+00 0.000000000000e+00 1.396983861923e-09 6.900000000000e+01
    0.000000000000e+00 4.000000000000e+00
22 20  4  5  2  0  0.0-7.851263508201e-04 4.547473508865e-13 0.000000000000e+00
    6.200000000000e+01-1.032812500000e+02 5.376652530588e-09-2.052738885568e+00
   -5.351379513741e-06 7.216707454063e-03 6.055459380150e-06 5.153534114838e+03
    7.200000000000e+03-4.656612873077e-08-1.373992601084e+00 1.918524503708e-07
    9.298733650038e-01 2.431250000000e+02-1.191966915395e+00-8.545713106110e-09
   -4.089456056545e-10 1.000000000000e+00 2.100000000000e+03 0.000000000000e+00
    2.400000000000e+00 0.000000000000e+00-1.816079020500e-08 6.200000000000e+01
    0.000000000000e+00 4.000000000000e+00
15 20  4  5  2  0  0.0-2.401741221547e-04 2.614797267597e-12 0.000000000000e+00
    6.000000000000e+01-2.628125000000e+01 4.802342894001e-09-2.005107105308e+00
   -1.372769474983e-06 1.221003604587e-02 1.307390630245e-05 5.153668333054e+03
    7.200000000000e+03 1.508742570877e-07-3.463824340702e-01-1.043081283569e-07
    9.286227455962e-01 1.082812500000e+02 8.703773615450e-01-7.938544957976e-09
    2.646538810393e-10 1.000000000000e+00 2.100000000000e+03 0.000000000000e+00
    2.400000000000e+00 0.000000000000e+00-1.117587089539e-08 6.000000000000e+01
    0.000000000000e+00 4.000000000000e+00
13 20  4  5  2  0  0.0-4.032626748085e-07 2.955857780762e-12 0.000000000000e+00
    4.600000000000e+01 1.118750000000e+01 4.016595878769e-09-1.939980716372e+00
    6.034970283508e-07 4.134994349442e-03 1.279637217522e-05 5.153665933609e+03
    7.200000000000e+03 1.210719347000e-07-1.163101401442e-01-3.352761268616e-08
    9.683556386650e-01 1.378750000000e+02 1.120348444198e+00-7.655676032493e-09
    3.489431063096e-10 1.000000000000e+00 2.100000000000e+03 0.000000000000e+00
    2.400000000000e+00 0.000000000000e+00-1.117587089539e-08 4.600000000000e+01
    0.000000000000e+00 4.000000000000e+00
21 20  4  5  2  0  0.0-1.841969788074e-05 5.002220859751e-12 0.000000000000e+00
    4.000000000000e+01 5.421875000000e+01 5.311292665230e-09 1.152185842582e+00
    2.268701791763e-06 2.477967552841e-02 3.520399332047e-06 5.153526189804e+03
    7.200000000000e+03-7.823109626770e-08-2.403414992979e+00-5.643814802170e-07
    9.523920893305e-01 3.092187500000e+02-1.342570362759e+00-8.811438460352e-09
    3.239420649158e-10 1.000000000000e+00 2.100000000000e+03 0.000000000000e+00
    2.400000000000e+00 0.000000000000e+00-1.024454832077e-08 4.000000000000e+01
    0.000000000000e+00 4.000000000000e+00
26 20  4  5  2  0  0.0 1.813033595681e-04 7.389644451905e-12 0.000000000000e+00
    3.900000000000e+01-4.528125000000e+01 4.946277460882e-09 6.502719592144e-01
   -2.302229404449e-06 4.729254753329e-03 7.582828402519e-06 5.153592267990e+03
    7.200000000000e+03 2.235174179077e-08 1.818968817501e+00 8.940696716309e-08
    9.470848346620e-01 2.264375000000e+02 2.234860202212e-01-8.366777081277e-09
   -4.535903224290e-10 1.000000000000e+00 2.100000000000e+03 0.000000000000e+00
    2.400000000000e+00 0.000000000000e+00 7.450580596924e-09 3.900000000000e+01
    0.000000000000e+00 4.000000000000e+00
16 20  4  5  2  0  0.0-1.429403200746e-04-4.320099833421e-12 0.000000000000e+00
    9.400000000000e+01-3.128125000000e+01 4.151244344561e-09-2.671947369561e-01
   -1.434236764908e-06 1.154064806178e-02 8.650124073029e-06 5.153739830017e+03
    7.200000000000e+03 5.587935447693e-08 1.940488631289e+00 1.564621925354e-07
    9.789336043083e-01 2.233125000000e+02 6.219158494286e-01-8.078550789781e-09
   -4.243033882249e-10 1.000000000000e+00 2.100000000000e+03 0.000000000000e+00
    3.400000000000e+00 0.000000000000e+00-1.071020960808e-08 9.400000000000e+01
    0.000000000000e+00 4.000000000000e+00
19 20  4  5  2  0  0.0-1.763678155839e-04 5.115907697473e-12 0.000000000000e+00
    5.200000000000e+01 8.865625000000e+01 3.928377918423e-09 1.452497719640e+00
    4.453584551811e-06 9.293157607317e-03 1.140125095844e-05 5.153687566757e+03
    7.200000000000e+03-1.862645149231e-08 3.001203243202e+00-2.291053533554e-07
    9.825373698710e-01 1.716562500000e+02 1.584184002160e+00-7.783538501335e-09
    2.971552348511e-10 1.000000000000e+00 2.100000000000e+03 0.000000000000e+00
    2.400000000000e+00 0.000000000000e+00-1.536682248116e-08 5.200000000000e+01
    0.000000000000e+00 4.000000000000e+00
11 20  4  5  2  0  0.0-3.142352215946e-04 1.080024958355e-11 0.000000000000e+00
    4.800000000000e+01 1.041250000000e+02 5.699880280035e-09 2.492954866034e+00
    5.330890417099e-06 1.588403142523e-02 5.330890417099e-06 5.153717811584e+03
    7.200000000000e+03 2.719461917877e-07-2.801732623684e+00 2.421438694000e-08
    9.125341474872e-01 2.464687500000e+02 1.972432079530e+00-8.574642882580e-09
    2.646538810393e-10 1.000000000000e+00 2.100000000000e+03 0.000000000000e+00
    2.400000000000e+00 0.000000000000e+00-1.257285475731e-08 4.800000000000e+01
    0.000000000000e+00 4.000000000000e+00
17 20  4  5  2  0  0.0 2.436279319227e-04 6.139089236967e-12 0.000000000000e+00
    1.080000000000e+02 9.646875000000e+01 3.839088484874e-09-1.236835521358e+00
    5.211681127548e-06 1.325762458146e-02 1.122802495956e-05 5.153689054489e+03
    7.200000000000e+03-1.098960638046e-07 2.955518707846e+00 3.017485141754e-07
    9.843938553382e-01 1.813750000000e+02-1.644574764352e+00-7.839969423338e-09
    2.478674675321e-10 1.000000000000e+00 2.100000000000e+03 0.000000000000e+00
    3.400000000000e+00 0.000000000000e+00-1.117587089539e-08 1.080000000000e+02
    0.000000000000e+00 4.000000000000e+00
32 20  4  5  2  0  0.0 2.524778246880e-04 8.640199666843e-12 0.000000000000e+00
    8.400000000000e+01-4.656250000000e+00 4.363753196408e-09-4.253425845174e-01
   -3.222376108170e-07 3.790576942265e-03 1.205503940582e-05 5.153705392838e+03
    7.200000000000e+03 7.264316082001e-08-2.501529760355e-01 5.215406417847e-08
    9.572771078054e-01 1.466875000000e+02-2.480934768914e+00-7.952474109610e-09
    1.582208762489e-10 1.000000000000e+00 2.100000000000e+03 0.000000000000e+00
    2.400000000000e+00 0.000000000000e+00 4.656612873077e-10 8.400000000000e+01
    0.000000000000e+00 4.000000000000e+00
20 20  4  5  2  0  0.0 5.278382450342e-04 0.000000000000e+00 0.000000000000e+00
    9.900000000000e+01-1.073750000000e+02 5.435583556730e-09 2.443841692502e+00
   -5.450099706650e-06 5.023634526879e-03 4.673376679420e-06 5.153637004852e+03
    7.200000000000e+03 4.656612873077e-08-1.421654135635e+00 6.705522537231e-08
    9.331537759318e-01 2.765937500000e+02 2.635365802455e+00-8.639645590203e-09
   -4.228747572882e-10 1.000000000000e+00 2.100000000000e+03 0.000000000000e+00
    2.400000000000e+00 0.000000000000e+00-8.847564458847e-09 9.900000000000e+01
    0.000000000000e+00 4.000000000000e+00
28 20  4  5  2  0  0.0 7.277936674654e-04-2.955857780762e-12 0.000000000000e+00
    7.100000000000e+01-2.856250000000e+01 4.246605459591e-09-4.274481156955e-01
   -1.644715666771e-06 1.847892953083e-02 9.564682841301e-06 5.153666086197e+03
    7.200000000000e+03-2.346932888031e-07 1.944256885898e+00 9.313225746155e-09
    9.779457118214e-01 2.098750000000e+02-1.411198730343e+00-8.228557038144e-09
   -4.103742365913e-10 1.000000000000e+00 2.100000000000e+03 0.000000000000e+00
    2.400000000000e+00 0.000000000000e+00-1.117587089539e-08 7.100000000000e+01
    0.000000000000e+00 4.000000000000e+00
18 20  4  5  2  0  0.0 1.447582617402e-04 1.398348103976e-11 0.000000000000e+00
    4.700000000000e+01 4.796875000000e+01 4.970564186807e-09-2.929490703446e+00
    2.520158886909e-06 5.131692159921e-04 2.704560756683e-06 5.154345323563e+03
    7.200000000000e+03-4.470348358154e-08-2.312679784190e+00 5.587935447693e-08
    9.629583545550e-01 3.299375000000e+02 2.974139203144e+00-8.511068805893e-09
    2.528676758108e-10 1.000000000000e+00 2.100000000000e+03 0.000000000000e+00
    2.400000000000e+00 0.000000000000e+00-4.656612873077e-09 3.030000000000e+02
    0.000000000000e+00 4.000000000000e+00
23 20  4  5  2  0  0.0-1.245657913387e-04 2.955857780762e-12 0.000000000000e+00
    1.020000000000e+02 9.062500000000e-01 4.475543567211e-09-2.682925049774e+00
   -1.732259988785e-07 1.406349311583e-02 1.314841210842e-05 5.155187393188e+03
    7.200000000000e+03 5.401670932770e-08-2.663905255375e-01-9.499490261078e-08
    9.439419687547e-01 1.122187500000e+02-2.210368358349e+00-7.741393888700e-09
    3.289422731946e-10 1.000000000000e+00 2.100000000000e+03 0.000000000000e+00
    2.400000000000e+00 6.300000000000e+01-2.002343535423e-08 1.020000000000e+02
    0.000000000000e+00 4.000000000000e+00
 4 20  4  5  2  0  0.0-7.183477282524e-05-5.229594535194e-12 0.000000000000e+00
    3.000000000000e+01 9.937500000000e+00 4.200532111880e-09-2.134268186414e+00
    4.135072231293e-07 6.481048185378e-04 1.271069049835e-05 5.153708093643e+03
    7.200000000000e+03-1.415610313416e-07-2.108261451380e-01 3.539025783539e-08
    9.604417697291e-01 1.344687500000e+02-2.647792625911e+00-7.761751879549e-09
    2.782258749387e-10 1.000000000000e+00 2.100000000000e+03 0.000000000000e+00
    2.400000000000e+00 0.000000000000e+00-4.190951585770e-09 2.860000000000e+02
    3.000000000000e+01 4.000000000000e+00
